{
    "links": {
        "self": "http://www.neowsapp.com/rest/v1/neo/3735630?api_key=iIulBulltgU6a56xZRHN4H3l9WmuAYTsLGpBGhQ2"
    },
    "id": "3735630",
    "neo_reference_id": "3735630",
    "name": "(2015 XO)",
    "designation": "2015 XO",
    "nasa_jpl_url": "http://ssd.jpl.nasa.gov/sbdb.cgi?sstr=3735630",
    "absolute_magnitude_h": 26.1,
    "estimated_diameter": {
        "kilometers": {
            "estimated_diameter_min": 0.0160160338,
            "estimated_diameter_max": 0.0358129403
        },
        "meters": {
            "estimated_diameter_min": 16.0160337979,
            "estimated_diameter_max": 35.8129403019
        },
        "miles": {
            "estimated_diameter_min": 0.0099518989,
            "estimated_diameter_max": 0.0222531225
        },
        "feet": {
            "estimated_diameter_min": 52.5460443254,
            "estimated_diameter_max": 117.4965270602
        }
    },
    "is_potentially_hazardous_asteroid": false,
    "close_approach_data": [
        {
            "close_approach_date": "2015-12-10",
            "close_approach_date_full": "2015-Dec-10 06:22",
            "epoch_date_close_approach": 1449728520000,
            "relative_velocity": {
                "kilometers_per_second": "4.6301773837",
                "kilometers_per_hour": "16668.6385812115",
                "miles_per_hour": "10357.2437895311"
            },
            "miss_distance": {
                "astronomical": "0.0539229753",
                "lunar": "20.9760373917",
                "kilometers": "8066762.248942611",
                "miles": "5012453.6309295918"
            },
            "orbiting_body": "Earth"
        }
    ],
    "orbital_data": {
        "orbit_id": "9",
        "orbit_determination_date": "2017-04-06 08:30:20",
        "first_observation_date": "2015-12-01",
        "last_observation_date": "2015-12-22",
        "data_arc_in_days": 21,
        "observations_used": 42,
        "orbit_uncertainty": "7",
        "minimum_orbit_intersection": ".0534526",
        "jupiter_tisserand_invariant": "4.017",
        "epoch_osculation": "2459000.5",
        "eccentricity": ".4102646471180881",
        "semi_major_axis": "1.759516937088",
        "inclination": "2.094809081765692",
        "ascending_node_longitude": "78.70769799074128",
        "orbital_period": "852.4886478470727",
        "perihelion_distance": "1.037649341795292",
        "perihelion_argument": "2.155508787500992",
        "aphelion_distance": "2.481384532380707",
        "perihelion_time": "2459075.038856154051",
        "mean_anomaly": "328.5227618183225",
        "mean_motion": ".4222930134133354",
        "equinox": "J2000",
        "orbit_class": {
            "orbit_class_type": "AMO",
            "orbit_class_description": "Near-Earth asteroid orbits similar to that of 1221 Amor",
            "orbit_class_range": "1.017 AU < q (perihelion) < 1.3 AU"
        }
    },
    "is_sentry_object": false
}